[{"OBJECT_NAME":"GEESAT-5 06","OBJECT_ID":"2025-201F","EPOCH":"2026-03-09T12:12:25.250112","MEAN_MOTION":14.83771772,"ECCENTRICITY":0.00144332,"INCLINATION":49.9906,"RA_OF_ASC_NODE":141.562,"ARG_OF_PERICENTER":298.4848,"MEAN_ANOMALY":61.4637,"EPHEMERIS_TYPE":0,"CLASSIFICATION_TYPE":"U","NORAD_CAT_ID":65555,"ELEMENT_SET_NO":999,"REV_AT_EPOCH":2698,"BSTAR":0.00016353536,"MEAN_MOTION_DOT":1.141e-5,"MEAN_MOTION_DDOT":0},{"OBJECT_NAME":"CZ-4 DEB","OBJECT_ID":"1990-081BL","EPOCH":"2026-03-09T17:23:57.962688","MEAN_MOTION":14.8316917,"ECCENTRICITY":0.0022936,"INCLINATION":99.0368,"RA_OF_ASC_NODE":144.8877,"ARG_OF_PERICENTER":127.0337,"MEAN_ANOMALY":352.4491,"EPHEMERIS_TYPE":0,"CLASSIFICATION_TYPE":"U","NORAD_CAT_ID":20900,"ELEMENT_SET_NO":999,"REV_AT_EPOCH":83354,"BSTAR":0.0030046619,"MEAN_MOTION_DOT":0.00024647,"MEAN_MOTION_DDOT":0}]
